CTC2_L_00599001-01
1 68605U 22716VM  26037.47799769  .00000000  00000+0  00000-0 0  9998
2 68605  50.0000   0.0000 0000000   0.0000   0.0000  5.94050264    18
CTC2_L_00599001-02
1 68606U 23821OL  26037.47799769  .00000000  00000+0  00000-0 0  9997
2 68606  50.0000   0.0000 0000000   0.0000  36.0000  5.94050264    18
CTC2_L_00599001-03
1 68607U 22786RF  26037.47799769  .00000000  00000+0  00000-0 0  9997
2 68607  50.0000   0.0000 0000000   0.0000  72.0000  5.94050264    19
CTC2_L_00599001-04
1 68608U 26643EB  26037.47799769  .00000000  00000+0  00000-0 0  9994
2 68608  50.0000   0.0000 0000000   0.0000 108.0000  5.94050264    10
CTC2_L_00599001-05
1 68609U 24783ZA  26037.47799769  .00000000  00000+0  00000-0 0  9998
2 68609  50.0000   0.0000 0000000   0.0000 144.0000  5.94050264    11
CTC2_L_00599001-06
1 68610U 24956CB  26037.47799769  .00000000  00000+0  00000-0 0  9992
2 68610  50.0000   0.0000 0000000   0.0000 180.0000  5.94050264    13
CTC2_L_00599001-07
1 68611U 24259SE  26037.47799769  .00000000  00000+0  00000-0 0  9999
2 68611  50.0000   0.0000 0000000   0.0000 216.0000  5.94050264    14
CTC2_L_00599001-08
1 68612U 26693BN  26037.47799769  .00000000  00000+0  00000-0 0  9994
2 68612  50.0000   0.0000 0000000   0.0000 252.0000  5.94050264    15
CTC2_L_00599001-09
1 68613U 23743CB  26037.47799769  .00000000  00000+0  00000-0 0  9998
2 68613  50.0000   0.0000 0000000   0.0000 288.0000  5.94050264    15
CTC2_L_00599001-10
1 68614U 23980EO  26037.47799769  .00000000  00000+0  00000-0 0  9992
2 68614  50.0000   0.0000 0000000   0.0000 324.0000  5.94050264    17
CTC2_L_00599002-01
1 68615U 26091GC  26037.47799769  .00000000  00000+0  00000-0 0  9999
2 68615  50.0000  30.0000 0000000   0.0000  12.0000  5.94050264    15
CTC2_L_00599002-02
1 68616U 23547TB  26037.47799769  .00000000  00000+0  00000-0 0  9993
2 68616  50.0000  30.0000 0000000   0.0000  48.0000  5.94050264    15
CTC2_L_00599002-03
1 68617U 26926OG  26037.47799769  .00000000  00000+0  00000-0 0  9998
2 68617  50.0000  30.0000 0000000   0.0000  84.0000  5.94050264    16
CTC2_L_00599002-04
1 68618U 25141IP  26037.47799769  .00000000  00000+0  00000-0 0  9997
2 68618  50.0000  30.0000 0000000   0.0000 120.0000  5.94050264    18
CTC2_L_00599002-05
1 68619U 24132BG  26037.47799769  .00000000  00000+0  00000-0 0  9997
2 68619  50.0000  30.0000 0000000   0.0000 156.0000  5.94050264    18
CTC2_L_00599002-06
1 68620U 24013IR  26037.47799769  .00000000  00000+0  00000-0 0  9997
2 68620  50.0000  30.0000 0000000   0.0000 192.0000  5.94050264    10
CTC2_L_00599002-07
1 68621U 22330QM  26037.47799769  .00000000  00000+0  00000-0 0  9998
2 68621  50.0000  30.0000 0000000   0.0000 228.0000  5.94050264    11
CTC2_L_00599002-08
1 68622U 22073ZX  26037.47799769  .00000000  00000+0  00000-0 0  9993
2 68622  50.0000  30.0000 0000000   0.0000 264.0000  5.94050264    12
CTC2_L_00599002-09
1 68623U 22435YM  26037.47799769  .00000000  00000+0  00000-0 0  9996
2 68623  50.0000  30.0000 0000000   0.0000 300.0000  5.94050264    14
CTC2_L_00599002-10
1 68624U 26717BO  26037.47799769  .00000000  00000+0  00000-0 0  9994
2 68624  50.0000  30.0000 0000000   0.0000 336.0000  5.94050264    14
CTC2_L_00599003-01
1 68625U 26243JQ  26037.47799769  .00000000  00000+0  00000-0 0  9999
2 68625  50.0000  60.0000 0000000   0.0000  24.0000  5.94050264    12
CTC2_L_00599003-02
1 68626U 22229VN  26037.47799769  .00000000  00000+0  00000-0 0  9990
2 68626  50.0000  60.0000 0000000   0.0000  60.0000  5.94050264    13
CTC2_L_00599003-03
1 68627U 22484OD  26037.47799769  .00000000  00000+0  00000-0 0  9994
2 68627  50.0000  60.0000 0000000   0.0000  96.0000  5.94050264    13
CTC2_L_00599003-04
1 68628U 26352TO  26037.47799769  .00000000  00000+0  00000-0 0  9993
2 68628  50.0000  60.0000 0000000   0.0000 132.0000  5.94050264    15
CTC2_L_00599003-05
1 68629U 22786UO  26037.47799769  .00000000  00000+0  00000-0 0  9991
2 68629  50.0000  60.0000 0000000   0.0000 168.0000  5.94050264    15
CTC2_L_00599003-06
1 68630U 26038BI  26037.47799769  .00000000  00000+0  00000-0 0  9997
2 68630  50.0000  60.0000 0000000   0.0000 204.0000  5.94050264    18
CTC2_L_00599003-07
1 68631U 24217TL  26037.47799769  .00000000  00000+0  00000-0 0  9995
2 68631  50.0000  60.0000 0000000   0.0000 240.0000  5.94050264    19
CTC2_L_00599003-08
1 68632U 25612BI  26037.47799769  .00000000  00000+0  00000-0 0  9996
2 68632  50.0000  60.0000 0000000   0.0000 276.0000  5.94050264    19
CTC2_L_00599003-09
1 68633U 22086FT  26037.47799769  .00000000  00000+0  00000-0 0  9999
2 68633  50.0000  60.0000 0000000   0.0000 312.0000  5.94050264    11
CTC2_L_00599003-10
1 68634U 22735WX  26037.47799769  .00000000  00000+0  00000-0 0  9991
2 68634  50.0000  60.0000 0000000   0.0000 348.0000  5.94050264    11
CTC2_L_00599004-01
1 68635U 23393BL  26037.47799769  .00000000  00000+0  00000-0 0  9993
2 68635  50.0000  90.0000 0000000   0.0000  36.0000  5.94050264    19
CTC2_L_00599004-02
1 68636U 24858LQ  26037.47799769  .00000000  00000+0  00000-0 0  9991
2 68636  50.0000  90.0000 0000000   0.0000  72.0000  5.94050264    10
CTC2_L_00599004-03
1 68637U 22018GY  26037.47799769  .00000000  00000+0  00000-0 0  9998
2 68637  50.0000  90.0000 0000000   0.0000 108.0000  5.94050264    11
CTC2_L_00599004-04
1 68638U 24195EG  26037.47799769  .00000000  00000+0  00000-0 0  9997
2 68638  50.0000  90.0000 0000000   0.0000 144.0000  5.94050264    12
CTC2_L_00599004-05
1 68639U 22167EN  26037.47799769  .00000000  00000+0  00000-0 0  9995
2 68639  50.0000  90.0000 0000000   0.0000 180.0000  5.94050264    13
CTC2_L_00599004-06
1 68640U 23786TH  26037.47799769  .00000000  00000+0  00000-0 0  9995
2 68640  50.0000  90.0000 0000000   0.0000 216.0000  5.94050264    15
CTC2_L_00599004-07
1 68641U 23084RU  26037.47799769  .00000000  00000+0  00000-0 0  9997
2 68641  50.0000  90.0000 0000000   0.0000 252.0000  5.94050264    16
CTC2_L_00599004-08
1 68642U 24168TR  26037.47799769  .00000000  00000+0  00000-0 0  9992
2 68642  50.0000  90.0000 0000000   0.0000 288.0000  5.94050264    16
CTC2_L_00599004-09
1 68643U 24677GX  26037.47799769  .00000000  00000+0  00000-0 0  9998
2 68643  50.0000  90.0000 0000000   0.0000 324.0000  5.94050264    18
CTC2_L_00599004-10
1 68644U 24830KL  26037.47799769  .00000000  00000+0  00000-0 0  9990
2 68644  50.0000  90.0000 0000000   0.0000   0.0000  5.94050264    10
CTC2_L_00599005-01
1 68645U 22774YY  26037.47799769  .00000000  00000+0  00000-0 0  9996
2 68645  50.0000 120.0000 0000000   0.0000  48.0000  5.94050264    17
CTC2_L_00599005-02
1 68646U 25958HK  26037.47799769  .00000000  00000+0  00000-0 0  9994
2 68646  50.0000 120.0000 0000000   0.0000  84.0000  5.94050264    18
CTC2_L_00599005-03
1 68647U 26605VB  26037.47799769  .00000000  00000+0  00000-0 0  9995
2 68647  50.0000 120.0000 0000000   0.0000 120.0000  5.94050264    10
CTC2_L_00599005-04
1 68648U 23003SF  26037.47799769  .00000000  00000+0  00000-0 0  9995
2 68648  50.0000 120.0000 0000000   0.0000 156.0000  5.94050264    10
CTC2_L_00599005-05
1 68649U 24076NT  26037.47799769  .00000000  00000+0  00000-0 0  9997
2 68649  50.0000 120.0000 0000000   0.0000 192.0000  5.94050264    11
CTC2_L_00599005-06
1 68650U 22447NT  26037.47799769  .00000000  00000+0  00000-0 0  9999
2 68650  50.0000 120.0000 0000000   0.0000 228.0000  5.94050264    13
CTC2_L_00599005-07
1 68651U 23846PM  26037.47799769  .00000000  00000+0  00000-0 0  9994
2 68651  50.0000 120.0000 0000000   0.0000 264.0000  5.94050264    14
CTC2_L_00599005-08
1 68652U 23351SY  26037.47799769  .00000000  00000+0  00000-0 0  9996
2 68652  50.0000 120.0000 0000000   0.0000 300.0000  5.94050264    16
CTC2_L_00599005-09
1 68653U 24119NA  26037.47799769  .00000000  00000+0  00000-0 0  9990
2 68653  50.0000 120.0000 0000000   0.0000 336.0000  5.94050264    16
CTC2_L_00599005-10
1 68654U 25664WM  26037.47799769  .00000000  00000+0  00000-0 0  9997
2 68654  50.0000 120.0000 0000000   0.0000  12.0000  5.94050264    18
CTC2_L_00599006-01
1 68655U 25036ST  26037.47799769  .00000000  00000+0  00000-0 0  9991
2 68655  50.0000 150.0000 0000000   0.0000  60.0000  5.94050264    15
CTC2_L_00599006-02
1 68656U 25344PB  26037.47799769  .00000000  00000+0  00000-0 0  9994
2 68656  50.0000 150.0000 0000000   0.0000  96.0000  5.94050264    15
CTC2_L_00599006-03
1 68657U 24310PB  26037.47799769  .00000000  00000+0  00000-0 0  9997
2 68657  50.0000 150.0000 0000000   0.0000 132.0000  5.94050264    17
CTC2_L_00599006-04
1 68658U 26984KA  26037.47799769  .00000000  00000+0  00000-0 0  9997
2 68658  50.0000 150.0000 0000000   0.0000 168.0000  5.94050264    17
CTC2_L_00599006-05
1 68659U 24716DU  26037.47799769  .00000000  00000+0  00000-0 0  9999
2 68659  50.0000 150.0000 0000000   0.0000 204.0000  5.94050264    19
CTC2_L_00599006-06
1 68660U 25314HC  26037.47799769  .00000000  00000+0  00000-0 0  9996
2 68660  50.0000 150.0000 0000000   0.0000 240.0000  5.94050264    11
CTC2_L_00599006-07
1 68661U 26940DN  26037.47799769  .00000000  00000+0  00000-0 0  9993
2 68661  50.0000 150.0000 0000000   0.0000 276.0000  5.94050264    11
CTC2_L_00599006-08
1 68662U 22884CR  26037.47799769  .00000000  00000+0  00000-0 0  9997
2 68662  50.0000 150.0000 0000000   0.0000 312.0000  5.94050264    13
CTC2_L_00599006-09
1 68663U 25238RY  26037.47799769  .00000000  00000+0  00000-0 0  9994
2 68663  50.0000 150.0000 0000000   0.0000 348.0000  5.94050264    13
CTC2_L_00599006-10
1 68664U 24578SX  26037.47799769  .00000000  00000+0  00000-0 0  9991
2 68664  50.0000 150.0000 0000000   0.0000  24.0000  5.94050264    15
CTC2_L_00599007-01
1 68665U 22226AC  26037.47799769  .00000000  00000+0  00000-0 0  9990
2 68665  50.0000 180.0000 0000000   0.0000  72.0000  5.94050264    12
CTC2_L_00599007-02
1 68666U 24105LF  26037.47799769  .00000000  00000+0  00000-0 0  9999
2 68666  50.0000 180.0000 0000000   0.0000 108.0000  5.94050264    13
